{"type": "FeatureCollection", "features": [ {"type": "Feature", "properties": {"norad_id": 66516, "name": "STARLINK-35924", "group": "last-30-days", "lat": 7.361712989915926, "lon": 66.66612486034916, "alt_km": 432.22452445531326, "timestamp": "2025-12-11T22:43:46.023225+00:00", "meta": {"OBJECT_NAME": "STARLINK-35924", "OBJECT_ID": "2025-265A", "EPOCH": "2025-12-11T14:00:01.999872", "MEAN_MOTION": 15.45915727, "ECCENTRICITY": 0.00011032, "INCLINATION": 43.0003, "RA_OF_ASC_NODE": 60.807, "ARG_OF_PERICENTER": 283.9554, "MEAN_ANOMALY": 221.4766, "EPHEMERIS_TYPE": 0, "CLASSIFICATION_TYPE": "U", "NORAD_CAT_ID": 66516, "ELEMENT_SET_NO": 999, "REV_AT_EPOCH": 478, "BSTAR": -0.045913268, "MEAN_MOTION_DOT": -0.02036022, "MEAN_MOTION_DDOT": 0}, "tle": {"line1": "1 66516U 25265A   25345.58335648 -.02036022  00000+0 -45913-1 0  9994", "line2": "2 66516  43.0003  60.8070 0001103 283.9554 221.4766 15.45915727  4781"}}, "geometry": {"type": "Point", "coordinates": [66.66612486034916, 7.361712989915926]}}, {"type": "Feature", "properties": {"norad_id": 66517, "name": "STARLINK-35937", "group": "last-30-days", "lat": 19.03914846926202, "lon": 80.39054171508413, "alt_km": 412.47175748518566, "timestamp": "2025-12-11T22:43:46.023250+00:00", "meta": {"OBJECT_NAME": "STARLINK-35937", "OBJECT_ID": "2025-265B", "EPOCH": "2025-12-11T14:00:01.999872", "MEAN_MOTION": 15.50603251, "ECCENTRICITY": 0.00015886, "INCLINATION": 43.0002, "RA_OF_ASC_NODE": 60.7825, "ARG_OF_PERICENTER": 283.1272, "MEAN_ANOMALY": 232.8838, "EPHEMERIS_TYPE": 0, "CLASSIFICATION_TYPE": "U", "NORAD_CAT_ID": 66517, "ELEMENT_SET_NO": 999, "REV_AT_EPOCH": 480, "BSTAR": -0.002143394, "MEAN_MOTION_DOT": -0.00124219, "MEAN_MOTION_DDOT": 0}, "tle": {"line1": "1 66517U 25265B   25345.58335648 -.00124219  00000+0 -21434-2 0  9992", "line2": "2 66517  43.0002  60.7825 0001588 283.1272 232.8838 15.50603251  4805"}}, "geometry": {"type": "Point", "coordinates": [80.39054171508413, 19.03914846926202]}}, {"type": "Feature", "properties": {"norad_id": 66518, "name": "STARLINK-35962", "group": "last-30-days", "lat": 20.24675673327364, "lon": 81.96659253643988, "alt_km": 412.38168154891537, "timestamp": "2025-12-11T22:43:46.023262+00:00", "meta": {"OBJECT_NAME": "STARLINK-35962", "OBJECT_ID": "2025-265C", "EPOCH": "2025-12-11T14:00:01.999872", "MEAN_MOTION": 15.50615112, "ECCENTRICITY": 0.00015168, "INCLINATION": 43, "RA_OF_ASC_NODE": 60.7766, "ARG_OF_PERICENTER": 275.7225, "MEAN_ANOMALY": 242.1877, "EPHEMERIS_TYPE": 0, "CLASSIFICATION_TYPE": "U", "NORAD_CAT_ID": 66518, "ELEMENT_SET_NO": 999, "REV_AT_EPOCH": 480, "BSTAR": -0.0020279257, "MEAN_MOTION_DOT": -0.00117691, "MEAN_MOTION_DDOT": 0}, "tle": {"line1": "1 66518U 25265C   25345.58335648 -.00117691  00000+0 -20279-2 0  9995", "line2": "2 66518  43.0000  60.7766 0001516 275.7225 242.1877 15.50615112  4800"}}, "geometry": {"type": "Point", "coordinates": [81.96659253643988, 20.24675673327364]}}, {"type": "Feature", "properties": {"norad_id": 66519, "name": "STARLINK-35931", "group": "last-30-days", "lat": 21.438389515464383, "lon": 83.56651938896266, "alt_km": 412.31388539666204, "timestamp": "2025-12-11T22:43:46.023272+00:00", "meta": {"OBJECT_NAME": "STARLINK-35931", "OBJECT_ID": "2025-265D", "EPOCH": "2025-12-11T14:00:01.999872", "MEAN_MOTION": 15.50594666, "ECCENTRICITY": 0.00015292, "INCLINATION": 43.0003, "RA_OF_ASC_NODE": 60.7724, "ARG_OF_PERICENTER": 274.0292, "MEAN_ANOMALY": 245.8213, "EPHEMERIS_TYPE": 0, "CLASSIFICATION_TYPE": "U", "NORAD_CAT_ID": 66519, "ELEMENT_SET_NO": 999, "REV_AT_EPOCH": 480, "BSTAR": -0.0020195083, "MEAN_MOTION_DOT": -0.00117127, "MEAN_MOTION_DDOT": 0}, "tle": {"line1": "1 66519U 25265D   25345.58335648 -.00117127  00000+0 -20195-2 0  9997", "line2": "2 66519  43.0003  60.7724 0001529 274.0292 245.8213 15.50594666  4802"}}, "geometry": {"type": "Point", "coordinates": [83.56651938896266, 21.438389515464383]}}, {"type": "Feature", "properties": {"norad_id": 66520, "name": "STARLINK-35952", "group": "last-30-days", "lat": 22.379404791693336, "lon": 84.86261789066126, "alt_km": 414.5099644224774, "timestamp": "2025-12-11T22:43:46.023283+00:00", "meta": {"OBJECT_NAME": "STARLINK-35952", "OBJECT_ID": "2025-265E", "EPOCH": "2025-12-11T14:00:01.999872", "MEAN_MOTION": 15.5097402, "ECCENTRICITY": 0.00011894, "INCLINATION": 42.9996, "RA_OF_ASC_NODE": 60.7664, "ARG_OF_PERICENTER": 286.2101, "MEAN_ANOMALY": 235.485, "EPHEMERIS_TYPE": 0, "CLASSIFICATION_TYPE": "U", "NORAD_CAT_ID": 66520, "ELEMENT_SET_NO": 999, "REV_AT_EPOCH": 480, "BSTAR": -0.031211072, "MEAN_MOTION_DOT": -0.0166324, "MEAN_MOTION_DDOT": 0}, "tle": {"line1": "1 66520U 25265E   25345.58335648 -.01663240  00000+0 -31211-1 0  9992", "line2": "2 66520  42.9996  60.7664 0001189 286.2101 235.4850 15.50974020  4800"}}, "geometry": {"type": "Point", "coordinates": [84.86261789066126, 22.379404791693336]}}, {"type": "Feature", "properties": {"norad_id": 66521, "name": "STARLINK-35915", "group": "last-30-days", "lat": 23.78244091056037, "lon": 86.85750323462037, "alt_km": 411.9568944444418, "timestamp": "2025-12-11T22:43:46.023293+00:00", "meta": {"OBJECT_NAME": "STARLINK-35915", "OBJECT_ID": "2025-265F", "EPOCH": "2025-12-11T14:00:01.999872", "MEAN_MOTION": 15.50624773, "ECCENTRICITY": 0.0001532, "INCLINATION": 43.0002, "RA_OF_ASC_NODE": 60.7618, "ARG_OF_PERICENTER": 274.2258, "MEAN_ANOMALY": 249.4371, "EPHEMERIS_TYPE": 0, "CLASSIFICATION_TYPE": "U", "NORAD_CAT_ID": 66521, "ELEMENT_SET_NO": 999, "REV_AT_EPOCH": 480, "BSTAR": -0.0023818194, "MEAN_MOTION_DOT": -0.00137865, "MEAN_MOTION_DDOT": 0}, "tle": {"line1": "1 66521U 25265F   25345.58335648 -.00137865  00000+0 -23818-2 0  9996", "line2": "2 66521  43.0002  60.7618 0001532 274.2258 249.4371 15.50624773  4802"}}, "geometry": {"type": "Point", "coordinates": [86.85750323462037, 23.78244091056037]}}, {"type": "Feature", "properties": {"norad_id": 66522, "name": "STARLINK-35946", "group": "last-30-days", "lat": 24.83336567893614, "lon": 88.4068218231501, "alt_km": 411.87060070123516, "timestamp": "2025-12-11T22:43:46.023303+00:00", "meta": {"OBJECT_NAME": "STARLINK-35946", "OBJECT_ID": "2025-265G", "EPOCH": "2025-12-11T14:00:01.999872", "MEAN_MOTION": 15.50480943, "ECCENTRICITY": 0.00019199, "INCLINATION": 43, "RA_OF_ASC_NODE": 60.7581, "ARG_OF_PERICENTER": 270.4576, "MEAN_ANOMALY": 255.03, "EPHEMERIS_TYPE": 0, "CLASSIFICATION_TYPE": "U", "NORAD_CAT_ID": 66522, "ELEMENT_SET_NO": 999, "REV_AT_EPOCH": 480, "BSTAR": 0.002021243, "MEAN_MOTION_DOT": 0.00119647, "MEAN_MOTION_DDOT": 0}, "tle": {"line1": "1 66522U 25265G   25345.58335648  .00119647  00000+0  20212-2 0  9998", "line2": "2 66522  43.0000  60.7581 0001919 270.4576 255.0300 15.50480943  4804"}}, "geometry": {"type": "Point", "coordinates": [88.4068218231501, 24.83336567893614]}}, {"type": "Feature", "properties": {"norad_id": 66523, "name": "STARLINK-35969", "group": "last-30-days", "lat": 26.064293007582016, "lon": 90.28528355340822, "alt_km": 411.9704485955308, "timestamp": "2025-12-11T22:43:46.023314+00:00", "meta": {"OBJECT_NAME": "STARLINK-35969", "OBJECT_ID": "2025-265H", "EPOCH": "2025-12-11T14:00:01.999872", "MEAN_MOTION": 15.5062011, "ECCENTRICITY": 0.00044403, "INCLINATION": 43.0004, "RA_OF_ASC_NODE": 60.7525, "ARG_OF_PERICENTER": 289.0242, "MEAN_ANOMALY": 238.4533, "EPHEMERIS_TYPE": 0, "CLASSIFICATION_TYPE": "U", "NORAD_CAT_ID": 66523, "ELEMENT_SET_NO": 999, "REV_AT_EPOCH": 480, "BSTAR": -0.0017524028, "MEAN_MOTION_DOT": -0.00102016, "MEAN_MOTION_DDOT": 0}, "tle": {"line1": "1 66523U 25265H   25345.58335648 -.00102016  00000+0 -17524-2 0  9995", "line2": "2 66523  43.0004  60.7525 0004440 289.0242 238.4533 15.50620110  4800"}}, "geometry": {"type": "Point", "coordinates": [90.28528355340822, 26.064293007582016]}}, {"type": "Feature", "properties": {"norad_id": 66524, "name": "STARLINK-35687", "group": "last-30-days", "lat": 20.97558583457443, "lon": 82.93785489647834, "alt_km": 426.99979408255604, "timestamp": "2025-12-11T22:43:46.023327+00:00", "meta": {"OBJECT_NAME": "STARLINK-35687", "OBJECT_ID": "2025-265J", "EPOCH": "2025-12-11T14:00:01.999872", "MEAN_MOTION": 15.47124251, "ECCENTRICITY": 0.00011488, "INCLINATION": 43.0003, "RA_OF_ASC_NODE": 60.7587, "ARG_OF_PERICENTER": 278.334, "MEAN_ANOMALY": 246.3386, "EPHEMERIS_TYPE": 0, "CLASSIFICATION_TYPE": "U", "NORAD_CAT_ID": 66524, "ELEMENT_SET_NO": 999, "REV_AT_EPOCH": 480, "BSTAR": -0.04401692, "MEAN_MOTION_DOT": -0.02036046, "MEAN_MOTION_DDOT": 0}, "tle": {"line1": "1 66524U 25265J   25345.58335648 -.02036046  00000+0 -44017-1 0  9993", "line2": "2 66524  43.0003  60.7587 0001148 278.3340 246.3386 15.47124251  4805"}}, "geometry": {"type": "Point", "coordinates": [82.93785489647834, 20.97558583457443]}}, {"type": "Feature", "properties": {"norad_id": 66525, "name": "STARLINK-35975", "group": "last-30-days", "lat": 28.16636397790833, "lon": 93.68621971338763, "alt_km": 411.38239711840106, "timestamp": "2025-12-11T22:43:46.023340+00:00", "meta": {"OBJECT_NAME": "STARLINK-35975", "OBJECT_ID": "2025-265K", "EPOCH": "2025-12-11T14:00:01.999872", "MEAN_MOTION": 15.50487433, "ECCENTRICITY": 0.00018886, "INCLINATION": 43.0002, "RA_OF_ASC_NODE": 60.7424, "ARG_OF_PERICENTER": 294.2704, "MEAN_ANOMALY": 237.0875, "EPHEMERIS_TYPE": 0, "CLASSIFICATION_TYPE": "U", "NORAD_CAT_ID": 66525, "ELEMENT_SET_NO": 999, "REV_AT_EPOCH": 480, "BSTAR": -0.001408517, "MEAN_MOTION_DOT": -0.00081851, "MEAN_MOTION_DDOT": 0}, "tle": {"line1": "1 66525U 25265K   25345.58335648 -.00081851  00000+0 -14085-2 0  9999", "line2": "2 66525  43.0002  60.7424 0001888 294.2704 237.0875 15.50487433  4805"}}, "geometry": {"type": "Point", "coordinates": [93.68621971338763, 28.16636397790833]}}]}